TRANSPORTER-15DM        
1 66773U 25276DM  25360.76431785  .00011093  00000+0  53947-3 0  9992
2 66773  97.4422  72.3361 0003063  95.0551 265.1033 15.18574615  4252
TRANSPORTER-15DN        
1 66774U 25276DN  25360.69777510  .00010790  00000+0  52384-3 0  9991
2 66774  97.4410  72.2673 0003006  93.7072 266.4506 15.18640330  4241
PHI 1                   
1 66775U 25276DP  25360.76272924  .00011347  00000+0  54965-3 0  9995
2 66775  97.4332  72.3083 0002585  60.4679 299.6813 15.18705484  4258
TRANSPORTER-15DQ        
1 66776U 25276DQ  25360.76224461  .00009951  00000+0  48181-3 0  9990
2 66776  97.4373  72.3218 0002769  77.0384 283.1159 15.18756731  4257
TRANSPORTER-15DR        
1 66777U 25276DR  25360.82520277  .00013653  00000+0  65468-3 0  9993
2 66777  97.4461  72.4208 0003478 103.5944 256.5678 15.19013424  4268
TRANSPORTER-15DS        
1 66778U 25276DS  25352.80997675  .00004904  00000+0  25484-3 0  9996
2 66778  97.4427  64.4586 0003231  41.3734 318.7744 15.16535337  3043
STARLINK-35867          
1 66791U 25278A   25360.83335647  .00062693  00000+0  14973-2 0  9999
2 66791  43.0001 167.9727 0001524 302.0789 355.2804 15.40668766  5224
STARLINK-35990          
1 66792U 25278B   25360.83335647 -.00033256  00000+0 -56356-3 0  9997
2 66792  43.0000 167.8055 0001513 265.4043 100.8677 15.50573313  5226
STARLINK-36051          
1 66793U 25278C   25360.83335647 -.00048155  00000+0 -82001-3 0  9998
2 66793  43.0000 167.7960 0001483 271.2947  98.8132 15.50580413  5125
STARLINK-36062          
1 66794U 25278D   25360.83335647 -.02046994  00000+0 -41038-1 0  9993
2 66794  43.0002 167.8020 0001404 261.5066 106.0110 15.49275962  5220
STARLINK-36047          
1 66795U 25278E   25360.83335647 -.02373897  00000+0 -59759-1 0  9998
2 66795  43.0001 167.8552 0001356 257.1094  88.7923 15.42678492  5123
STARLINK-35964          
1 66796U 25278F   25360.48587670  .00501754  00000+0  23432-2 0  9996
2 66796  42.9916 166.7893 0002717 253.8891 106.1681 15.81140199  4028
