CCSDS_OMM_VERS = 2.0
CREATION_DATE  = 
ORIGINATOR     = 

OBJECT_NAME    = TRANSPORTER-15DM
OBJECT_ID      = 2025-276DM
CENTER_NAME    = EARTH
REF_FRAME      = TEME
TIME_SYSTEM    = UTC
MEAN_ELEMENT_THEORY = SGP/SGP4

EPOCH          = 2025-12-26T18:20:37.062240
MEAN_MOTION    = 15.18574615
ECCENTRICITY   = .0003063
INCLINATION    = 97.4422
RA_OF_ASC_NODE = 72.3361
ARG_OF_PERICENTER = 95.0551
MEAN_ANOMALY   = 265.1033

EPHEMERIS_TYPE = 0
CLASSIFICATION_TYPE = U
NORAD_CAT_ID   = 66773
ELEMENT_SET_NO = 999
REV_AT_EPOCH   = 425
BSTAR          = .53947E-3
MEAN_MOTION_DOT = .11093E-3
MEAN_MOTION_DDOT = 0

CCSDS_OMM_VERS = 2.0
CREATION_DATE  = 
ORIGINATOR     = 

OBJECT_NAME    = TRANSPORTER-15DN
OBJECT_ID      = 2025-276DN
CENTER_NAME    = EARTH
REF_FRAME      = TEME
TIME_SYSTEM    = UTC
MEAN_ELEMENT_THEORY = SGP/SGP4

EPOCH          = 2025-12-26T16:44:47.768640
MEAN_MOTION    = 15.18640330
ECCENTRICITY   = .0003006
INCLINATION    = 97.4410
RA_OF_ASC_NODE = 72.2673
ARG_OF_PERICENTER = 93.7072
MEAN_ANOMALY   = 266.4506

EPHEMERIS_TYPE = 0
CLASSIFICATION_TYPE = U
NORAD_CAT_ID   = 66774
ELEMENT_SET_NO = 999
REV_AT_EPOCH   = 424
BSTAR          = .52384E-3
MEAN_MOTION_DOT = .1079E-3
MEAN_MOTION_DDOT = 0

CCSDS_OMM_VERS = 2.0
CREATION_DATE  = 
ORIGINATOR     = 

OBJECT_NAME    = PHI 1
OBJECT_ID      = 2025-276DP
CENTER_NAME    = EARTH
REF_FRAME      = TEME
TIME_SYSTEM    = UTC
MEAN_ELEMENT_THEORY = SGP/SGP4

EPOCH          = 2025-12-26T18:18:19.806336
MEAN_MOTION    = 15.18705484
ECCENTRICITY   = .0002585
INCLINATION    = 97.4332
RA_OF_ASC_NODE = 72.3083
ARG_OF_PERICENTER = 60.4679
MEAN_ANOMALY   = 299.6813

EPHEMERIS_TYPE = 0
CLASSIFICATION_TYPE = U
NORAD_CAT_ID   = 66775
ELEMENT_SET_NO = 999
REV_AT_EPOCH   = 425
BSTAR          = .54965E-3
MEAN_MOTION_DOT = .11347E-3
MEAN_MOTION_DDOT = 0

CCSDS_OMM_VERS = 2.0
CREATION_DATE  = 
ORIGINATOR     = 

OBJECT_NAME    = TRANSPORTER-15DQ
OBJECT_ID      = 2025-276DQ
CENTER_NAME    = EARTH
REF_FRAME      = TEME
TIME_SYSTEM    = UTC
MEAN_ELEMENT_THEORY = SGP/SGP4

EPOCH          = 2025-12-26T18:17:37.934304
MEAN_MOTION    = 15.18756731
ECCENTRICITY   = .0002769
INCLINATION    = 97.4373
RA_OF_ASC_NODE = 72.3218
ARG_OF_PERICENTER = 77.0384
MEAN_ANOMALY   = 283.1159

EPHEMERIS_TYPE = 0
CLASSIFICATION_TYPE = U
NORAD_CAT_ID   = 66776
ELEMENT_SET_NO = 999
REV_AT_EPOCH   = 425
BSTAR          = .48181E-3
MEAN_MOTION_DOT = .9951E-4
MEAN_MOTION_DDOT = 0

CCSDS_OMM_VERS = 2.0
CREATION_DATE  = 
ORIGINATOR     = 

OBJECT_NAME    = TRANSPORTER-15DR
OBJECT_ID      = 2025-276DR
CENTER_NAME    = EARTH
REF_FRAME      = TEME
TIME_SYSTEM    = UTC
MEAN_ELEMENT_THEORY = SGP/SGP4

EPOCH          = 2025-12-26T19:48:17.519328
MEAN_MOTION    = 15.19013424
ECCENTRICITY   = .0003478
INCLINATION    = 97.4461
RA_OF_ASC_NODE = 72.4208
ARG_OF_PERICENTER = 103.5944
MEAN_ANOMALY   = 256.5678

EPHEMERIS_TYPE = 0
CLASSIFICATION_TYPE = U
NORAD_CAT_ID   = 66777
ELEMENT_SET_NO = 999
REV_AT_EPOCH   = 426
BSTAR          = .65468E-3
MEAN_MOTION_DOT = .13653E-3
MEAN_MOTION_DDOT = 0

CCSDS_OMM_VERS = 2.0
CREATION_DATE  = 
ORIGINATOR     = 

OBJECT_NAME    = TRANSPORTER-15DS
OBJECT_ID      = 2025-276DS
CENTER_NAME    = EARTH
REF_FRAME      = TEME
TIME_SYSTEM    = UTC
MEAN_ELEMENT_THEORY = SGP/SGP4

EPOCH          = 2025-12-18T19:26:21.991200
MEAN_MOTION    = 15.16535337
ECCENTRICITY   = .00032319
INCLINATION    = 97.4427
RA_OF_ASC_NODE = 64.4586
ARG_OF_PERICENTER = 41.3734
MEAN_ANOMALY   = 318.7744

EPHEMERIS_TYPE = 0
CLASSIFICATION_TYPE = U
NORAD_CAT_ID   = 66778
ELEMENT_SET_NO = 999
REV_AT_EPOCH   = 304
BSTAR          = .25483693E-3
MEAN_MOTION_DOT = .4904E-4
MEAN_MOTION_DDOT = 0

CCSDS_OMM_VERS = 2.0
CREATION_DATE  = 
ORIGINATOR     = 

OBJECT_NAME    = STARLINK-35867
OBJECT_ID      = 2025-278A
CENTER_NAME    = EARTH
REF_FRAME      = TEME
TIME_SYSTEM    = UTC
MEAN_ELEMENT_THEORY = SGP/SGP4

EPOCH          = 2025-12-26T20:00:01.999008
MEAN_MOTION    = 15.40668766
ECCENTRICITY   = .0001524
INCLINATION    = 43.0001
RA_OF_ASC_NODE = 167.9727
ARG_OF_PERICENTER = 302.0789
MEAN_ANOMALY   = 355.2804

EPHEMERIS_TYPE = 0
CLASSIFICATION_TYPE = U
NORAD_CAT_ID   = 66791
ELEMENT_SET_NO = 999
REV_AT_EPOCH   = 522
BSTAR          = .14973E-2
MEAN_MOTION_DOT = .62693E-3
MEAN_MOTION_DDOT = 0

CCSDS_OMM_VERS = 2.0
CREATION_DATE  = 
ORIGINATOR     = 

OBJECT_NAME    = STARLINK-35990
OBJECT_ID      = 2025-278B
CENTER_NAME    = EARTH
REF_FRAME      = TEME
TIME_SYSTEM    = UTC
MEAN_ELEMENT_THEORY = SGP/SGP4

EPOCH          = 2025-12-26T20:00:01.999008
MEAN_MOTION    = 15.50573313
ECCENTRICITY   = .0001513
INCLINATION    = 43.0000
RA_OF_ASC_NODE = 167.8055
ARG_OF_PERICENTER = 265.4043
MEAN_ANOMALY   = 100.8677

EPHEMERIS_TYPE = 0
CLASSIFICATION_TYPE = U
NORAD_CAT_ID   = 66792
ELEMENT_SET_NO = 999
REV_AT_EPOCH   = 522
BSTAR          = -.56356E-3
MEAN_MOTION_DOT = -.33256E-3
MEAN_MOTION_DDOT = 0

CCSDS_OMM_VERS = 2.0
CREATION_DATE  = 
ORIGINATOR     = 

OBJECT_NAME    = STARLINK-36051
OBJECT_ID      = 2025-278C
CENTER_NAME    = EARTH
REF_FRAME      = TEME
TIME_SYSTEM    = UTC
MEAN_ELEMENT_THEORY = SGP/SGP4

EPOCH          = 2025-12-26T20:00:01.999008
MEAN_MOTION    = 15.50580413
ECCENTRICITY   = .0001483
INCLINATION    = 43.0000
RA_OF_ASC_NODE = 167.7960
ARG_OF_PERICENTER = 271.2947
MEAN_ANOMALY   = 98.8132

EPHEMERIS_TYPE = 0
CLASSIFICATION_TYPE = U
NORAD_CAT_ID   = 66793
ELEMENT_SET_NO = 999
REV_AT_EPOCH   = 512
BSTAR          = -.82001E-3
MEAN_MOTION_DOT = -.48155E-3
MEAN_MOTION_DDOT = 0

CCSDS_OMM_VERS = 2.0
CREATION_DATE  = 
ORIGINATOR     = 

OBJECT_NAME    = STARLINK-36062
OBJECT_ID      = 2025-278D
CENTER_NAME    = EARTH
REF_FRAME      = TEME
TIME_SYSTEM    = UTC
MEAN_ELEMENT_THEORY = SGP/SGP4

EPOCH          = 2025-12-26T20:00:01.999008
MEAN_MOTION    = 15.49275962
ECCENTRICITY   = .0001404
INCLINATION    = 43.0002
RA_OF_ASC_NODE = 167.8020
ARG_OF_PERICENTER = 261.5066
MEAN_ANOMALY   = 106.0110

EPHEMERIS_TYPE = 0
CLASSIFICATION_TYPE = U
NORAD_CAT_ID   = 66794
ELEMENT_SET_NO = 999
REV_AT_EPOCH   = 522
BSTAR          = -.41038E-1
MEAN_MOTION_DOT = -.2046994E-1
MEAN_MOTION_DDOT = 0

CCSDS_OMM_VERS = 2.0
CREATION_DATE  = 
ORIGINATOR     = 

OBJECT_NAME    = STARLINK-36047
OBJECT_ID      = 2025-278E
CENTER_NAME    = EARTH
REF_FRAME      = TEME
TIME_SYSTEM    = UTC
MEAN_ELEMENT_THEORY = SGP/SGP4

EPOCH          = 2025-12-26T20:00:01.999008
MEAN_MOTION    = 15.42678492
ECCENTRICITY   = .0001356
INCLINATION    = 43.0001
RA_OF_ASC_NODE = 167.8552
ARG_OF_PERICENTER = 257.1094
MEAN_ANOMALY   = 88.7923

EPHEMERIS_TYPE = 0
CLASSIFICATION_TYPE = U
NORAD_CAT_ID   = 66795
ELEMENT_SET_NO = 999
REV_AT_EPOCH   = 512
BSTAR          = -.59759E-1
MEAN_MOTION_DOT = -.2373897E-1
MEAN_MOTION_DDOT = 0

CCSDS_OMM_VERS = 2.0
CREATION_DATE  = 
ORIGINATOR     = 

OBJECT_NAME    = STARLINK-35964
OBJECT_ID      = 2025-278F
CENTER_NAME    = EARTH
REF_FRAME      = TEME
TIME_SYSTEM    = UTC
MEAN_ELEMENT_THEORY = SGP/SGP4

EPOCH          = 2025-12-26T11:39:39.746880
MEAN_MOTION    = 15.81140199
ECCENTRICITY   = .0002717
INCLINATION    = 42.9916
RA_OF_ASC_NODE = 166.7893
ARG_OF_PERICENTER = 253.8891
MEAN_ANOMALY   = 106.1681

EPHEMERIS_TYPE = 0
CLASSIFICATION_TYPE = U
NORAD_CAT_ID   = 66796
ELEMENT_SET_NO = 999
REV_AT_EPOCH   = 402
BSTAR          = .23432E-2
MEAN_MOTION_DOT = .501754E-2
MEAN_MOTION_DDOT = 0

